NORAD_CAT_ID,OBJECT_NAME,OBJECT_TYPE,EPOCH,MEAN_MOTION,ECCENTRICITY,INCLINATION,RA_OF_ASC_NODE,ARG_OF_PERICENTER,MEAN_ANOMALY,BSTAR,MEAN_MOTION_DOT,MEAN_MOTION_DDOT,TLE_LINE0,TLE_LINE1,TLE_LINE2,SEMIMAJOR_AXIS,PERIOD,APOGEE,PERIGEE,DECAYED
55304.0,STARLINK-5318,PAYLOAD,2023-02-26 23:32:06,15.69940074,0.0002307,70.0014,320.8073,264.5763,95.5169,2.6268e-05,2.949e-05,0.0,0 STARLINK-5318,1 55304U 23010AM  23057.98063561  .00002949  00000-0  26268-4 0  9990,2 55304  70.0014 320.8073 0002307 264.5763  95.5169 15.69940074  6544,6737.205,91.723,360.625,357.516,0.0
55304.0,STARLINK-5318,PAYLOAD,2023-02-27 02:35:37,15.69942239,0.0003357,70.0005,320.4472,259.4135,100.6683,4.6356e-05,5.369e-05,0.0,0 STARLINK-5318,1 55304U 23010AM  23058.10806763  .00005369  00000-0  46356-4 0  9993,2 55304  70.0005 320.4472 0003357 259.4135 100.6683 15.69942239  6875,6737.199,91.723,361.326,356.803,0.0
55304.0,STARLINK-5318,PAYLOAD,2023-02-27 20:56:38,15.69935555,0.0004667,69.9982,318.2947,281.1411,78.926,7.4165e-05,8.72e-05,0.0,0 STARLINK-5318,1 55304U 23010AM  23058.87266527  .00008720  00000-0  74165-4 0  9998,2 55304  69.9982 318.2947 0004667 281.1411  78.9260 15.69935555  6996,6737.218,91.724,362.228,355.939,0.0
55304.0,STARLINK-5318,PAYLOAD,2023-02-28 06:07:09,15.69914281,0.0003228,70.0007,317.2215,280.1142,79.9689,-2.75e-05,-3.516e-05,0.0,0 STARLINK-5318,1 55304U 23010AM  23059.25497138 -.00003516  00000-0 -27500-4 0  9996,2 55304  70.0007 317.2215 0003228 280.1142  79.9689 15.69914281  6748,6737.279,91.725,361.319,356.969,0.0
55304.0,STARLINK-5318,PAYLOAD,2023-02-28 19:52:56,15.69902235,0.0003576,70.0008,315.6098,277.2871,82.7918,-1.5014e-05,-2.016e-05,0.0,0 STARLINK-5318,1 55304U 23010AM  23059.82843367 -.00002016  00000-0 -15014-4 0  9999,2 55304  70.0008 315.6098 0003576 277.2871  82.7918 15.69902235  7140,6737.314,91.725,361.588,356.769,0.0
55304.0,STARLINK-5318,PAYLOAD,2023-03-01 01:59:56,15.69921533,0.0003338,70.0011,314.8933,275.534,84.5475,5.9674e-05,6.968e-05,0.0,0 STARLINK-5318,1 55304U 23010AM  23060.08329735  .00006968  00000-0  59674-4 0  9995,2 55304  70.0011 314.8933 0003338 275.5340  84.5475 15.69921533  6870,6737.258,91.724,361.372,356.875,0.0
55304.0,STARLINK-5318,PAYLOAD,2023-03-01 20:20:58,15.69929631,0.0003458,70.0009,312.7424,271.32,88.7599,9.029e-05,0.0001066,0.0,0 STARLINK-5318,1 55304U 23010AM  23060.84789849  .00010660  00000-0  90290-4 0  9998,2 55304  70.0009 312.7424 0003458 271.3200  88.7599 15.69929631  7300,6737.235,91.724,361.43,356.771,0.0
55304.0,STARLINK-5318,PAYLOAD,2023-03-02 19:17:14,15.69935276,0.0003271,70.0019,310.0587,264.6334,95.4489,2.8981e-05,3.275e-05,0.0,0 STARLINK-5318,1 55304U 23010AM  23061.80364353  .00003275  00000-0  28981-4 0  9996,2 55304  70.0019 310.0587 0003271 264.6334  95.4489 15.69935276  7459,6737.219,91.724,361.288,356.88,0.0
55304.0,STARLINK-5318,PAYLOAD,2023-03-03 02:56:00,15.69923075,0.0002774,70.0017,309.1621,269.7673,90.3205,-2.8858e-06,-5.59e-06,0.0,0 STARLINK-5318,1 55304U 23010AM  23062.12222996 -.00000559  00000-0 -28858-5 0  9996,2 55304  70.0017 309.1621 0002774 269.7673  90.3205 15.69923075  7199,6737.254,91.724,360.988,357.25,0.0
55304.0,STARLINK-5318,PAYLOAD,2023-03-03 22:48:46,15.69942594,0.0003097,70.0019,306.8327,268.3103,91.7738,5.2058e-05,6.056e-05,0.0,0 STARLINK-5318,1 55304U 23010AM  23062.95053762  .00006056  00000-0  52058-4 0  9994,2 55304  70.0019 306.8327 0003097 268.3103  91.7738 15.69942594  7328,6737.198,91.723,361.15,356.977,0.0
55304.0,STARLINK-5318,PAYLOAD,2023-03-04 04:55:47,15.69917641,0.000315,70.0014,306.1145,274.4026,85.681,-1.3547e-05,-1.841e-05,0.0,0 STARLINK-5318,1 55304U 23010AM  23063.20541318 -.00001841  00000-0 -13547-4 0  9991,2 55304  70.0014 306.1145 0003150 274.4026  85.6810 15.69917641  7368,6737.27,91.725,361.257,357.012,0.0
55304.0,STARLINK-5318,PAYLOAD,2023-03-04 18:41:33,15.69923229,0.0003765,70.0005,304.5036,273.3407,86.7358,3.3379e-05,3.803e-05,0.0,0 STARLINK-5318,1 55304U 23010AM  23063.77886451  .00003803  00000-0  33379-4 0  9996,2 55304  70.0005 304.5036 0003765 273.3407  86.7358 15.69923229  7764,6737.254,91.724,361.655,356.582,0.0
55304.0,STARLINK-5318,PAYLOAD,2023-03-05 17:37:50,15.69939705,0.0003743,70.0013,301.8162,277.7718,82.3052,0.00010521,0.00012466,0.0,0 STARLINK-5318,1 55304U 23010AM  23064.73461271  .00012466  00000-0  10521-3 0  9990,2 55304  70.0013 301.8162 0003743 277.7718  82.3052 15.69939705  7918,6737.207,91.723,361.593,356.55,0.0
55304.0,STARLINK-5318,PAYLOAD,2023-03-06 01:16:36,15.69921682,0.0003328,70.0002,300.92,280.0794,80.0026,-4.21e-05,-5.271e-05,0.0,0 STARLINK-5318,1 55304U 23010AM  23065.05319718 -.00005271  00000-0 -42100-4 0  9991,2 55304  70.0002 300.9200 0003328 280.0794  80.0026 15.69921682  7651,6737.258,91.724,361.365,356.881,0.0
55304.0,STARLINK-5318,PAYLOAD,2023-03-06 19:37:37,15.69914623,0.00035,70.0,298.7698,273.7853,86.2942,-6.8908e-06,-1.041e-05,0.0,0 STARLINK-5318,1 55304U 23010AM  23065.81780048 -.00001041  00000-0 -68908-5 0  9999,2 55304  70.0000 298.7698 0003500 273.7853  86.2942 15.69914623  8081,6737.278,91.725,361.501,356.785,0.0
55304.0,STARLINK-5318,PAYLOAD,2023-03-07 01:44:38,15.69939567,0.0003259,69.9993,298.0516,274.4873,85.595,7.922e-05,9.329e-05,0.0,0 STARLINK-5318,1 55304U 23010AM  23066.07266509  .00009329  00000-0  79220-4 0  9992,2 55304  69.9993 298.0516 0003259 274.4873  85.5950 15.69939567  7817,6737.207,91.723,361.268,356.876,0.0
55304.0,STARLINK-5318,PAYLOAD,2023-03-07 21:37:24,15.69934945,0.0003406,70.0002,295.726,262.7463,97.3345,6.8497e-05,8.035e-05,0.0,0 STARLINK-5318,1 55304U 23010AM  23066.90097958  .00008035  00000-0  68497-4 0  9991,2 55304  70.0002 295.7260 0003406 262.7463  97.3345 15.69934945  7948,6737.22,91.724,361.38,356.79,0.0
55304.0,STARLINK-5318,PAYLOAD,2023-03-08 00:40:54,15.69933628,0.000404,69.9997,295.3671,266.8461,93.2272,6.5798e-05,7.71e-05,0.0,0 STARLINK-5318,1 55304U 23010AM  23067.02841264  .00007710  00000-0  65798-4 0  9992,2 55304  69.9997 295.3671 0004040 266.8461  93.2272 15.69933628  8276,6737.224,91.724,361.811,356.367,0.0
55304.0,STARLINK-5318,PAYLOAD,2023-03-08 23:37:11,15.6993459,0.0004207,69.9986,292.6789,263.4236,96.6481,2.1419e-05,2.364e-05,0.0,0 STARLINK-5318,1 55304U 23010AM  23067.98415796  .00002364  00000-0  21419-4 0  9996,2 55304  69.9986 292.6789 0004207 263.4236  96.6481 15.69934590  8113,6737.221,91.724,361.92,356.252,0.0
55304.0,STARLINK-5318,PAYLOAD,2023-03-09 01:08:57,15.69914335,0.0003184,69.9998,292.4989,289.454,70.6312,-3.1885e-05,-4.043e-05,0.0,0 STARLINK-5318,1 55304U 23010AM  23068.04788359 -.00004043  00000-0 -31885-4 0  9998,2 55304  69.9998 292.4989 0003184 289.4540  70.6312 15.69914335  8126,6737.279,91.725,361.289,356.999,0.0
55304.0,STARLINK-5318,PAYLOAD,2023-03-09 17:58:13,15.69923871,0.0004253,69.9976,290.5278,275.4911,84.5799,-8.597e-06,-1.247e-05,0.0,0 STARLINK-5318,1 55304U 23010AM  23068.74876280 -.00001247  00000-0 -85970-5 0  9994,2 55304  69.9976 290.5278 0004253 275.4911  84.5799 15.69923871  8237,6737.252,91.724,361.982,356.251,0.0
55304.0,STARLINK-5318,PAYLOAD,2023-03-09 21:01:42,15.6993988,0.0004287,69.9982,290.1707,269.291,90.7795,4.1408e-05,4.773e-05,0.0,0 STARLINK-5318,1 55304U 23010AM  23068.87619202  .00004773  00000-0  41408-4 0  9999,2 55304  69.9982 290.1707 0004287 269.2910  90.7795 15.69939880  8562,6737.206,91.723,361.959,356.183,0.0
55304.0,STARLINK-5318,PAYLOAD,2023-03-10 00:05:14,15.69911486,0.0003276,69.9995,289.8141,269.2833,90.7987,-3.3321e-05,-4.215e-05,0.0,0 STARLINK-5318,1 55304U 23010AM  23069.00363696 -.00004215  00000-0 -33321-4 0  9996,2 55304  69.9995 289.8141 0003276 269.2833  90.7987 15.69911486  8277,6737.287,91.725,361.359,356.945,0.0
55304.0,STARLINK-5318,PAYLOAD,2023-03-10 07:44:00,15.69909533,0.0003116,70.0,288.9184,270.7687,89.3151,-2.0325e-05,-2.654e-05,0.0,0 STARLINK-5318,1 55304U 23010AM  23069.32222508 -.00002654  00000-0 -20325-4 0  9992,2 55304  70.0000 288.9184 0003116 270.7687  89.3151 15.69909533  8638,6737.293,91.725,361.257,357.058,0.0
55304.0,STARLINK-5318,PAYLOAD,2023-03-11 03:36:46,15.69938324,0.0003397,70.001,286.5878,272.6708,87.4099,8.2134e-05,9.68e-05,0.0,0 STARLINK-5318,1 55304U 23010AM  23070.15053518  .00009680  00000-0  82134-4 0  9998,2 55304  70.0010 286.5878 0003397 272.6708  87.4099 15.69938324  8459,6737.21,91.723,361.364,356.787,0.0
55304.0,STARLINK-5318,PAYLOAD,2023-03-11 17:22:32,15.69928314,0.0003746,70.0006,284.9768,270.0914,89.9852,-2.2454e-07,-2.4e-06,0.0,0 STARLINK-5318,1 55304U 23010AM  23070.72398573 -.00000240  00000-0 -22454-6 0  9990,2 55304  70.0006 284.9768 0003746 270.0914  89.9852 15.69928314  8545,6737.239,91.724,361.628,356.58,0.0
55304.0,STARLINK-5318,PAYLOAD,2023-03-12 13:15:19,15.69925698,0.0003529,70.0001,282.6471,268.1482,91.931,1.6894e-05,1.819e-05,0.0,0 STARLINK-5318,1 55304U 23010AM  23071.55230414  .00001819  00000-0  16894-4 0  9991,2 55304  70.0001 282.6471 0003529 268.1482  91.9310 15.69925698  8985,6737.247,91.724,361.489,356.734,0.0
55304.0,STARLINK-5318,PAYLOAD,2023-03-13 01:29:19,15.69931693,0.0003294,70.0011,281.2157,274.2584,85.8235,2.0873e-05,2.299e-05,0.0,0 STARLINK-5318,1 55304U 23010AM  23072.06203612  .00002299  00000-0  20873-4 0  9993,2 55304  70.0011 281.2157 0003294 274.2584  85.8235 15.69931693  8757,6737.229,91.724,361.314,356.875,0.0
55304.0,STARLINK-5318,PAYLOAD,2023-03-13 21:22:06,15.69927766,0.0003811,69.9994,278.8845,266.9291,93.1468,1.3736e-05,1.439e-05,0.0,0 STARLINK-5318,1 55304U 23010AM  23072.89035389  .00001439  00000-0  13736-4 0  9993,2 55304  69.9994 278.8845 0003811 266.9291  93.1468 15.69927766  8888,6737.241,91.724,361.673,356.538,0.0
55304.0,STARLINK-5318,PAYLOAD,2023-03-14 12:39:37,15.69927576,0.0003258,70.0013,277.0949,276.1274,83.9551,1.2457e-05,1.286e-05,0.0,0 STARLINK-5318,1 55304U 23010AM  23073.52752286  .00001286  00000-0  12457-4 0  9995,2 55304  70.0013 277.0949 0003258 276.1274  83.9551 15.69927576  9293,6737.241,91.724,361.301,356.911,0.0
